KUIPER-00136            
1 65962U 25228R   25341.33336806  .00004708  00000+0  15551-3 0  9992
2 65962  51.8818  46.5302 0005803 347.9858 146.0706 15.33293284  4458
KUIPER-00137            
1 65963U 25228S   25341.19140774  .00051697  00000+0  14710-2 0  9998
2 65963  51.8803  47.3714 0006340   7.9088 352.1997 15.35604641  9568
KUIPER-00138            
1 65964U 25228T   25341.19531534  .00062848  00000+0  17836-2 0  9999
2 65964  51.8795  47.3883 0007708   5.3120 354.7947 15.35591873  9569
KUIPER-00140            
1 65965U 25228U   25341.20197871  .00052843  00000+0  15319-2 0  9992
2 65965  51.8788  47.4363 0008057 353.3542   6.7336 15.34998786  9567
KUIPER-00141            
1 65966U 25228V   25341.17885259  .00048014  00000+0  13451-2 0  9993
2 65966  51.8792  47.2799 0005920   0.4366 359.6624 15.36127378  9567
KUIPER-00146            
1 65967U 25228W   25341.18766964  .00063808  00000+0  18024-2 0  9995
2 65967  51.8798  47.3488 0006766 359.1801   0.9173 15.35737649  9569
KUIPER-00149            
1 65968U 25228X   25340.45917724  .00077861  00000+0  21825-2 0  9994
2 65968  51.8819  50.7112 0005207 350.7842   9.3048 15.35893587  9453
KUIPER-00154            
1 65969U 25228Y   25340.46319992  .00057073  00000+0  16153-2 0  9990
2 65969  51.8803  50.7364 0005583 348.7257  11.3603 15.35732735  9457
