<?xml version="1.0" encoding="UTF-8"?>
<ndm xmlns:xsi="http://www.w3.org/2001/XMLSchema-instance" xsi:noNamespaceSchemaLocation="https://sanaregistry.org/r/ndmxml_unqualified/ndmxml-2.0.0-master-2.0.xsd">
<omm id="CCSDS_OMM_VERS" version="2.0">
<header><CREATION_DATE/><ORIGINATOR/></header><body><segment><metadata><OBJECT_NAME>KUIPER-00136</OBJECT_NAME><OBJECT_ID>2025-228R</OBJECT_ID><CENTER_NAME>EARTH</CENTER_NAME><REF_FRAME>TEME</REF_FRAME><TIME_SYSTEM>UTC</TIME_SYSTEM><MEAN_ELEMENT_THEORY>SGP4</MEAN_ELEMENT_THEORY></metadata><data><meanElements><EPOCH>2025-12-07T08:00:03.000384</EPOCH><MEAN_MOTION>15.33293284</MEAN_MOTION><ECCENTRICITY>.0005803</ECCENTRICITY><INCLINATION>51.8818</INCLINATION><RA_OF_ASC_NODE>46.5302</RA_OF_ASC_NODE><ARG_OF_PERICENTER>347.9858</ARG_OF_PERICENTER><MEAN_ANOMALY>146.0706</MEAN_ANOMALY></meanElements><tleParameters><EPHEMERIS_TYPE>0</EPHEMERIS_TYPE><CLASSIFICATION_TYPE>U</CLASSIFICATION_TYPE><NORAD_CAT_ID>65962</NORAD_CAT_ID><ELEMENT_SET_NO>999</ELEMENT_SET_NO><REV_AT_EPOCH>445</REV_AT_EPOCH><BSTAR>.15550892E-3</BSTAR><MEAN_MOTION_DOT>.4708E-4</MEAN_MOTION_DOT><MEAN_MOTION_DDOT>0</MEAN_MOTION_DDOT></tleParameters></data></segment></body></omm>
<omm id="CCSDS_OMM_VERS" version="2.0">
<header><CREATION_DATE/><ORIGINATOR/></header><body><segment><metadata><OBJECT_NAME>KUIPER-00137</OBJECT_NAME><OBJECT_ID>2025-228S</OBJECT_ID><CENTER_NAME>EARTH</CENTER_NAME><REF_FRAME>TEME</REF_FRAME><TIME_SYSTEM>UTC</TIME_SYSTEM><MEAN_ELEMENT_THEORY>SGP4</MEAN_ELEMENT_THEORY></metadata><data><meanElements><EPOCH>2025-12-07T04:35:37.628736</EPOCH><MEAN_MOTION>15.35604641</MEAN_MOTION><ECCENTRICITY>.00063403</ECCENTRICITY><INCLINATION>51.8803</INCLINATION><RA_OF_ASC_NODE>47.3714</RA_OF_ASC_NODE><ARG_OF_PERICENTER>7.9088</ARG_OF_PERICENTER><MEAN_ANOMALY>352.1997</MEAN_ANOMALY></meanElements><tleParameters><EPHEMERIS_TYPE>0</EPHEMERIS_TYPE><CLASSIFICATION_TYPE>U</CLASSIFICATION_TYPE><NORAD_CAT_ID>65963</NORAD_CAT_ID><ELEMENT_SET_NO>999</ELEMENT_SET_NO><REV_AT_EPOCH>956</REV_AT_EPOCH><BSTAR>.14710192E-2</BSTAR><MEAN_MOTION_DOT>.51697E-3</MEAN_MOTION_DOT><MEAN_MOTION_DDOT>0</MEAN_MOTION_DDOT></tleParameters></data></segment></body></omm>
<omm id="CCSDS_OMM_VERS" version="2.0">
<header><CREATION_DATE/><ORIGINATOR/></header><body><segment><metadata><OBJECT_NAME>KUIPER-00138</OBJECT_NAME><OBJECT_ID>2025-228T</OBJECT_ID><CENTER_NAME>EARTH</CENTER_NAME><REF_FRAME>TEME</REF_FRAME><TIME_SYSTEM>UTC</TIME_SYSTEM><MEAN_ELEMENT_THEORY>SGP4</MEAN_ELEMENT_THEORY></metadata><data><meanElements><EPOCH>2025-12-07T04:41:15.245376</EPOCH><MEAN_MOTION>15.35591873</MEAN_MOTION><ECCENTRICITY>.00077082</ECCENTRICITY><INCLINATION>51.8795</INCLINATION><RA_OF_ASC_NODE>47.3883</RA_OF_ASC_NODE><ARG_OF_PERICENTER>5.3120</ARG_OF_PERICENTER><MEAN_ANOMALY>354.7947</MEAN_ANOMALY></meanElements><tleParameters><EPHEMERIS_TYPE>0</EPHEMERIS_TYPE><CLASSIFICATION_TYPE>U</CLASSIFICATION_TYPE><NORAD_CAT_ID>65964</NORAD_CAT_ID><ELEMENT_SET_NO>999</ELEMENT_SET_NO><REV_AT_EPOCH>956</REV_AT_EPOCH><BSTAR>.17835648E-2</BSTAR><MEAN_MOTION_DOT>.62848E-3</MEAN_MOTION_DOT><MEAN_MOTION_DDOT>0</MEAN_MOTION_DDOT></tleParameters></data></segment></body></omm>
<omm id="CCSDS_OMM_VERS" version="2.0">
<header><CREATION_DATE/><ORIGINATOR/></header><body><segment><metadata><OBJECT_NAME>KUIPER-00140</OBJECT_NAME><OBJECT_ID>2025-228U</OBJECT_ID><CENTER_NAME>EARTH</CENTER_NAME><REF_FRAME>TEME</REF_FRAME><TIME_SYSTEM>UTC</TIME_SYSTEM><MEAN_ELEMENT_THEORY>SGP4</MEAN_ELEMENT_THEORY></metadata><data><meanElements><EPOCH>2025-12-07T04:50:50.960544</EPOCH><MEAN_MOTION>15.34998786</MEAN_MOTION><ECCENTRICITY>.00080579</ECCENTRICITY><INCLINATION>51.8788</INCLINATION><RA_OF_ASC_NODE>47.4363</RA_OF_ASC_NODE><ARG_OF_PERICENTER>353.3542</ARG_OF_PERICENTER><MEAN_ANOMALY>6.7336</MEAN_ANOMALY></meanElements><tleParameters><EPHEMERIS_TYPE>0</EPHEMERIS_TYPE><CLASSIFICATION_TYPE>U</CLASSIFICATION_TYPE><NORAD_CAT_ID>65965</NORAD_CAT_ID><ELEMENT_SET_NO>999</ELEMENT_SET_NO><REV_AT_EPOCH>956</REV_AT_EPOCH><BSTAR>.15319245E-2</BSTAR><MEAN_MOTION_DOT>.52843E-3</MEAN_MOTION_DOT><MEAN_MOTION_DDOT>0</MEAN_MOTION_DDOT></tleParameters></data></segment></body></omm>
<omm id="CCSDS_OMM_VERS" version="2.0">
<header><CREATION_DATE/><ORIGINATOR/></header><body><segment><metadata><OBJECT_NAME>KUIPER-00141</OBJECT_NAME><OBJECT_ID>2025-228V</OBJECT_ID><CENTER_NAME>EARTH</CENTER_NAME><REF_FRAME>TEME</REF_FRAME><TIME_SYSTEM>UTC</TIME_SYSTEM><MEAN_ELEMENT_THEORY>SGP4</MEAN_ELEMENT_THEORY></metadata><data><meanElements><EPOCH>2025-12-07T04:17:32.863776</EPOCH><MEAN_MOTION>15.36127378</MEAN_MOTION><ECCENTRICITY>.00059209</ECCENTRICITY><INCLINATION>51.8792</INCLINATION><RA_OF_ASC_NODE>47.2799</RA_OF_ASC_NODE><ARG_OF_PERICENTER>0.4366</ARG_OF_PERICENTER><MEAN_ANOMALY>359.6624</MEAN_ANOMALY></meanElements><tleParameters><EPHEMERIS_TYPE>0</EPHEMERIS_TYPE><CLASSIFICATION_TYPE>U</CLASSIFICATION_TYPE><NORAD_CAT_ID>65966</NORAD_CAT_ID><ELEMENT_SET_NO>999</ELEMENT_SET_NO><REV_AT_EPOCH>956</REV_AT_EPOCH><BSTAR>.13450624E-2</BSTAR><MEAN_MOTION_DOT>.48014E-3</MEAN_MOTION_DOT><MEAN_MOTION_DDOT>0</MEAN_MOTION_DDOT></tleParameters></data></segment></body></omm>
<omm id="CCSDS_OMM_VERS" version="2.0">
<header><CREATION_DATE/><ORIGINATOR/></header><body><segment><metadata><OBJECT_NAME>KUIPER-00146</OBJECT_NAME><OBJECT_ID>2025-228W</OBJECT_ID><CENTER_NAME>EARTH</CENTER_NAME><REF_FRAME>TEME</REF_FRAME><TIME_SYSTEM>UTC</TIME_SYSTEM><MEAN_ELEMENT_THEORY>SGP4</MEAN_ELEMENT_THEORY></metadata><data><meanElements><EPOCH>2025-12-07T04:30:14.656896</EPOCH><MEAN_MOTION>15.35737649</MEAN_MOTION><ECCENTRICITY>.00067666</ECCENTRICITY><INCLINATION>51.8798</INCLINATION><RA_OF_ASC_NODE>47.3488</RA_OF_ASC_NODE><ARG_OF_PERICENTER>359.1801</ARG_OF_PERICENTER><MEAN_ANOMALY>0.9173</MEAN_ANOMALY></meanElements><tleParameters><EPHEMERIS_TYPE>0</EPHEMERIS_TYPE><CLASSIFICATION_TYPE>U</CLASSIFICATION_TYPE><NORAD_CAT_ID>65967</NORAD_CAT_ID><ELEMENT_SET_NO>999</ELEMENT_SET_NO><REV_AT_EPOCH>956</REV_AT_EPOCH><BSTAR>.18023566E-2</BSTAR><MEAN_MOTION_DOT>.63808E-3</MEAN_MOTION_DOT><MEAN_MOTION_DDOT>0</MEAN_MOTION_DDOT></tleParameters></data></segment></body></omm>
<omm id="CCSDS_OMM_VERS" version="2.0">
<header><CREATION_DATE/><ORIGINATOR/></header><body><segment><metadata><OBJECT_NAME>KUIPER-00149</OBJECT_NAME><OBJECT_ID>2025-228X</OBJECT_ID><CENTER_NAME>EARTH</CENTER_NAME><REF_FRAME>TEME</REF_FRAME><TIME_SYSTEM>UTC</TIME_SYSTEM><MEAN_ELEMENT_THEORY>SGP4</MEAN_ELEMENT_THEORY></metadata><data><meanElements><EPOCH>2025-12-06T11:01:12.913536</EPOCH><MEAN_MOTION>15.35893587</MEAN_MOTION><ECCENTRICITY>.00052071</ECCENTRICITY><INCLINATION>51.8819</INCLINATION><RA_OF_ASC_NODE>50.7112</RA_OF_ASC_NODE><ARG_OF_PERICENTER>350.7842</ARG_OF_PERICENTER><MEAN_ANOMALY>9.3048</MEAN_ANOMALY></meanElements><tleParameters><EPHEMERIS_TYPE>0</EPHEMERIS_TYPE><CLASSIFICATION_TYPE>U</CLASSIFICATION_TYPE><NORAD_CAT_ID>65968</NORAD_CAT_ID><ELEMENT_SET_NO>999</ELEMENT_SET_NO><REV_AT_EPOCH>945</REV_AT_EPOCH><BSTAR>.21825355E-2</BSTAR><MEAN_MOTION_DOT>.77861E-3</MEAN_MOTION_DOT><MEAN_MOTION_DDOT>0</MEAN_MOTION_DDOT></tleParameters></data></segment></body></omm>
<omm id="CCSDS_OMM_VERS" version="2.0">
<header><CREATION_DATE/><ORIGINATOR/></header><body><segment><metadata><OBJECT_NAME>KUIPER-00154</OBJECT_NAME><OBJECT_ID>2025-228Y</OBJECT_ID><CENTER_NAME>EARTH</CENTER_NAME><REF_FRAME>TEME</REF_FRAME><TIME_SYSTEM>UTC</TIME_SYSTEM><MEAN_ELEMENT_THEORY>SGP4</MEAN_ELEMENT_THEORY></metadata><data><meanElements><EPOCH>2025-12-06T11:07:00.473088</EPOCH><MEAN_MOTION>15.35732735</MEAN_MOTION><ECCENTRICITY>.00055833</ECCENTRICITY><INCLINATION>51.8803</INCLINATION><RA_OF_ASC_NODE>50.7364</RA_OF_ASC_NODE><ARG_OF_PERICENTER>348.7257</ARG_OF_PERICENTER><MEAN_ANOMALY>11.3603</MEAN_ANOMALY></meanElements><tleParameters><EPHEMERIS_TYPE>0</EPHEMERIS_TYPE><CLASSIFICATION_TYPE>U</CLASSIFICATION_TYPE><NORAD_CAT_ID>65969</NORAD_CAT_ID><ELEMENT_SET_NO>999</ELEMENT_SET_NO><REV_AT_EPOCH>945</REV_AT_EPOCH><BSTAR>.16153002E-2</BSTAR><MEAN_MOTION_DOT>.57073E-3</MEAN_MOTION_DOT><MEAN_MOTION_DDOT>0</MEAN_MOTION_DDOT></tleParameters></data></segment></body></omm>

</ndm>
